{"type": "FeatureCollection", "features": [{"type": "Feature", "geometry": {"type": "Point", "coordinates": [124.723, -8.2734]}, "properties": {"code": "AAFM"}}, {"type": "Feature", "geometry": {"type": "Point", "coordinates": [128.194, -3.68715]}, "properties": {"code": "AAI"}}, {"type": "Feature", "geometry": {"type": "Point", "coordinates": [128.194, -3.6871]}, "properties": {"code": "AAII"}}, {"type": "Feature", "geometry": {"type": "Point", "coordinates": [114.234, -7.79565]}, "properties": {"code": "ABJI"}}, {"type": "Feature", "geometry": {"type": "Point", "coordinates": [102.263, -3.42536]}, "properties": {"code": "ABSM"}}, {"type": "Feature", "geometry": {"type": "Point", "coordinates": [107.683, -7.02973]}, "properties": {"code": "ACBM"}}, {"type": "Feature", "geometry": {"type": "Point", "coordinates": [108.615, -6.803]}, "properties": {"code": "ACJM"}}, {"type": "Feature", "geometry": {"type": "Point", "coordinates": [124.59, -8.14435]}, "properties": {"code": "ALKI"}}, {"type": "Feature", "geometry": {"type": "Point", "coordinates": [106.749, -6.2651]}, "properties": {"code": "AMGI"}}, {"type": "Feature", "geometry": {"type": "Point", "coordinates": [132.491, -1.2674]}, "properties": {"code": "AMPM"}}, {"type": "Feature", "geometry": {"type": "Point", "coordinates": [124.518, -8.21598]}, "properties": {"code": "ANAN"}}, {"type": "Feature", "geometry": {"type": "Point", "coordinates": [133.912, -1.323]}, "properties": {"code": "ANAPI"}}, {"type": "Feature", "geometry": {"type": "Point", "coordinates": [121.649, -0.9108]}, "properties": {"code": "APSI"}}, {"type": "Feature", "geometry": {"type": "Point", "coordinates": [102.465, -3.932]}, "properties": {"code": "APSSI"}}, {"type": "Feature", "geometry": {"type": "Point", "coordinates": [140.592, -2.783]}, "properties": {"code": "ARKPI"}}, {"type": "Feature", "geometry": {"type": "Point", "coordinates": [134.219, -5.7749]}, "properties": {"code": "ARMI"}}, {"type": "Feature", "geometry": {"type": "Point", "coordinates": [140.748, -2.89961]}, "properties": {"code": "ARPI"}}, {"type": "Feature", "geometry": {"type": "Point", "coordinates": [115.286, -6.85843]}, "properties": {"code": "ARSKI"}}, {"type": "Feature", "geometry": {"type": "Point", "coordinates": [105.921, -6.0639]}, "properties": {"code": "ASJR"}}, {"type": "Feature", "geometry": {"type": "Point", "coordinates": [95.7475, 2.82456]}, "properties": {"code": "ASSR"}}, {"type": "Feature", "geometry": {"type": "Point", "coordinates": [124.299, -10.068]}, "properties": {"code": "ASTTI"}}, {"type": "Feature", "geometry": {"type": "Point", "coordinates": [113.496, -7.16151]}, "properties": {"code": "ATJN"}}, {"type": "Feature", "geometry": {"type": "Point", "coordinates": [124.09, -9.425]}, "properties": {"code": "ATKTI"}}, {"type": "Feature", "geometry": {"type": "Point", "coordinates": [124.864, -9.08353]}, "properties": {"code": "ATNI"}}, {"type": "Feature", "geometry": {"type": "Point", "coordinates": [98.5265, 3.26324]}, "properties": {"code": "AUSN"}}, {"type": "Feature", "geometry": {"type": "Point", "coordinates": [107.597, -6.8836]}, "properties": {"code": "BACE"}}, {"type": "Feature", "geometry": {"type": "Point", "coordinates": [112.709, -7.09064]}, "properties": {"code": "BAJI"}}, {"type": "Feature", "geometry": {"type": "Point", "coordinates": [106.251, -6.3615]}, "properties": {"code": "BALB"}}, {"type": "Feature", "geometry": {"type": "Point", "coordinates": [111.305, -7.912]}, "properties": {"code": "BAPJI"}}, {"type": "Feature", "geometry": {"type": "Point", "coordinates": [97.407, 2.307]}, "properties": {"code": "BASAI"}}, {"type": "Feature", "geometry": {"type": "Point", "coordinates": [96.1157, 4.16062]}, "properties": {"code": "BASN"}}, {"type": "Feature", "geometry": {"type": "Point", "coordinates": [119.63, -4.53]}, "properties": {"code": "BASO"}}, {"type": "Feature", "geometry": {"type": "Point", "coordinates": [133.445, -2.5427]}, "properties": {"code": "BATPI"}}, {"type": "Feature", "geometry": {"type": "Point", "coordinates": [120.448, -5.5771]}, "properties": {"code": "BBBCM"}}, {"type": "Feature", "geometry": {"type": "Point", "coordinates": [115.179, -8.73911]}, "properties": {"code": "BBBR"}}, {"type": "Feature", "geometry": {"type": "Point", "coordinates": [121.436, 1.158]}, "properties": {"code": "BBCI"}}, {"type": "Feature", "geometry": {"type": "Point", "coordinates": [120.058, -5.0392]}, "properties": {"code": "BBCM"}}, {"type": "Feature", "geometry": {"type": "Point", "coordinates": [107.65, -7.46255]}, "properties": {"code": "BBJI"}}, {"type": "Feature", "geometry": {"type": "Point", "coordinates": [111.81, -7.326]}, "properties": {"code": "BBJM"}}, {"type": "Feature", "geometry": {"type": "Point", "coordinates": [114.841, -3.46149]}, "properties": {"code": "BBKI"}}, {"type": "Feature", "geometry": {"type": "Point", "coordinates": [123.522, -1.63753]}, "properties": {"code": "BBLSI"}}, {"type": "Feature", "geometry": {"type": "Point", "coordinates": [101.366, -0.28597]}, "properties": {"code": "BBSN"}}, {"type": "Feature", "geometry": {"type": "Point", "coordinates": [104.234, -5.52406]}, "properties": {"code": "BBSR"}}, {"type": "Feature", "geometry": {"type": "Point", "coordinates": [111.411, -6.9892]}, "properties": {"code": "BCJN"}}, {"type": "Feature", "geometry": {"type": "Point", "coordinates": [122.789, -0.96652]}, "properties": {"code": "BCSN"}}, {"type": "Feature", "geometry": {"type": "Point", "coordinates": [115.209, -8.52]}, "properties": {"code": "BDBI"}}, {"type": "Feature", "geometry": {"type": "Point", "coordinates": [119.587, -0.8726]}, "properties": {"code": "BDCM"}}, {"type": "Feature", "geometry": {"type": "Point", "coordinates": [129.904, -4.5224]}, "properties": {"code": "BDMI"}}, {"type": "Feature", "geometry": {"type": "Point", "coordinates": [126.362, 1.322]}, "properties": {"code": "BDMUI"}}, {"type": "Feature", "geometry": {"type": "Point", "coordinates": [102.337, -3.8583]}, "properties": {"code": "BEFA"}}, {"type": "Feature", "geometry": {"type": "Point", "coordinates": [102.593, -3.6506]}, "properties": {"code": "BEKI"}}, {"type": "Feature", "geometry": {"type": "Point", "coordinates": [102.312, -3.8652]}, "properties": {"code": "BEPA"}}, {"type": "Feature", "geometry": {"type": "Point", "coordinates": [96.8654, 4.7199]}, "properties": {"code": "BESI"}}, {"type": "Feature", "geometry": {"type": "Point", "coordinates": [96.3251, 4.1516]}, "properties": {"code": "BESM"}}, {"type": "Feature", "geometry": {"type": "Point", "coordinates": [97.315, 3.983]}, "properties": {"code": "BGASI"}}, {"type": "Feature", "geometry": {"type": "Point", "coordinates": [123.391, -0.8816]}, "properties": {"code": "BGCI"}}, {"type": "Feature", "geometry": {"type": "Point", "coordinates": [119.88, -0.0496]}, "properties": {"code": "BGCM"}}, {"type": "Feature", "geometry": {"type": "Point", "coordinates": [116.909, -1.25]}, "properties": {"code": "BGKI"}}, {"type": "Feature", "geometry": {"type": "Point", "coordinates": [114.752, -3.4386]}, "properties": {"code": "BJMI"}}, {"type": "Feature", "geometry": {"type": "Point", "coordinates": [100.318, -0.202]}, "properties": {"code": "BKASI"}}, {"type": "Feature", "geometry": {"type": "Point", "coordinates": [116.905, -1.1073]}, "properties": {"code": "BKB"}}, {"type": "Feature", "geometry": {"type": "Point", "coordinates": [108.532, -7.3633]}, "properties": {"code": "BKJI"}}, {"type": "Feature", "geometry": {"type": "Point", "coordinates": [101.04, 0.3264]}, "properties": {"code": "BKNI"}}, {"type": "Feature", "geometry": {"type": "Point", "coordinates": [120.122, -5.32184]}, "properties": {"code": "BKSI"}}, {"type": "Feature", "geometry": {"type": "Point", "coordinates": [119.687, -0.1229]}, "properties": {"code": "BLCM"}}, {"type": "Feature", "geometry": {"type": "Point", "coordinates": [113.595, -7.74542]}, "properties": {"code": "BLJI"}}, {"type": "Feature", "geometry": {"type": "Point", "coordinates": [106.246, -6.93318]}, "properties": {"code": "BLJR"}}, {"type": "Feature", "geometry": {"type": "Point", "coordinates": [105.245, -5.36758]}, "properties": {"code": "BLSI"}}, {"type": "Feature", "geometry": {"type": "Point", "coordinates": [102.807, -3.14022]}, "properties": {"code": "BLSM"}}, {"type": "Feature", "geometry": {"type": "Point", "coordinates": [96.8525, 3.73957]}, "properties": {"code": "BLSN"}}, {"type": "Feature", "geometry": {"type": "Point", "coordinates": [96.7447, 4.90226]}, "properties": {"code": "BMASI"}}, {"type": "Feature", "geometry": {"type": "Point", "coordinates": [110.884, -6.66347]}, "properties": {"code": "BMBNG"}}, {"type": "Feature", "geometry": {"type": "Point", "coordinates": [114.335, -8.31306]}, "properties": {"code": "BMJR"}}, {"type": "Feature", "geometry": {"type": "Point", "coordinates": [118.693, -8.5427]}, "properties": {"code": "BMNI"}}, {"type": "Feature", "geometry": {"type": "Point", "coordinates": [102.315, -2.06641]}, "properties": {"code": "BMSI"}}, {"type": "Feature", "geometry": {"type": "Point", "coordinates": [120.107, -4.40052]}, "properties": {"code": "BNSI"}}, {"type": "Feature", "geometry": {"type": "Point", "coordinates": [120.977, -8.7881]}, "properties": {"code": "BNTI"}}, {"type": "Feature", "geometry": {"type": "Point", "coordinates": [110.69, -7.5682]}, "properties": {"code": "BOJI"}}, {"type": "Feature", "geometry": {"type": "Point", "coordinates": [104.021, -4.8592]}, "properties": {"code": "BOSM"}}, {"type": "Feature", "geometry": {"type": "Point", "coordinates": [113.492, -6.95052]}, "properties": {"code": "BPMJM"}}, {"type": "Feature", "geometry": {"type": "Point", "coordinates": [100.59, -1.1924]}, "properties": {"code": "BPSM"}}, {"type": "Feature", "geometry": {"type": "Point", "coordinates": [100.221, -0.00083]}, "properties": {"code": "BPSR"}}, {"type": "Feature", "geometry": {"type": "Point", "coordinates": [101.451, 0.50725]}, "properties": {"code": "BRSN"}}, {"type": "Feature", "geometry": {"type": "Point", "coordinates": [95.2961, 5.49611]}, "properties": {"code": "BSI"}}, {"type": "Feature", "geometry": {"type": "Point", "coordinates": [112.636, -7.24864]}, "properties": {"code": "BSJN"}}, {"type": "Feature", "geometry": {"type": "Point", "coordinates": [106.0, -6.55764]}, "properties": {"code": "BSJR"}}, {"type": "Feature", "geometry": {"type": "Point", "coordinates": [130.494, -3.10754]}, "properties": {"code": "BSMI"}}, {"type": "Feature", "geometry": {"type": "Point", "coordinates": [120.49, -6.1428]}, "properties": {"code": "BSSI"}}, {"type": "Feature", "geometry": {"type": "Point", "coordinates": [121.924, -2.4768]}, "properties": {"code": "BTCM"}}, {"type": "Feature", "geometry": {"type": "Point", "coordinates": [109.164, -7.1972]}, "properties": {"code": "BTJI"}}, {"type": "Feature", "geometry": {"type": "Point", "coordinates": [110.182, -7.29445]}, "properties": {"code": "BTJN"}}, {"type": "Feature", "geometry": {"type": "Point", "coordinates": [125.179, 1.443]}, "properties": {"code": "BTSI"}}, {"type": "Feature", "geometry": {"type": "Point", "coordinates": [122.06, -4.7811]}, "properties": {"code": "BTSN"}}, {"type": "Feature", "geometry": {"type": "Point", "coordinates": [139.704, -2.3779]}, "properties": {"code": "BTSPI"}}, {"type": "Feature", "geometry": {"type": "Point", "coordinates": [102.3, -3.81942]}, "properties": {"code": "BTSR"}}, {"type": "Feature", "geometry": {"type": "Point", "coordinates": [122.207, -0.855]}, "properties": {"code": "BUBSI"}}, {"type": "Feature", "geometry": {"type": "Point", "coordinates": [109.461, -7.7561]}, "properties": {"code": "BUJI"}}, {"type": "Feature", "geometry": {"type": "Point", "coordinates": [118.07, 1.25]}, "properties": {"code": "BUKI"}}, {"type": "Feature", "geometry": {"type": "Point", "coordinates": [121.335, -1.9778]}, "properties": {"code": "BUMSI"}}, {"type": "Feature", "geometry": {"type": "Point", "coordinates": [96.243, 5.24451]}, "properties": {"code": "BUSI"}}, {"type": "Feature", "geometry": {"type": "Point", "coordinates": [98.505, 3.59019]}, "properties": {"code": "BUSN"}}, {"type": "Feature", "geometry": {"type": "Point", "coordinates": [112.658, -5.85107]}, "properties": {"code": "BWJI"}}, {"type": "Feature", "geometry": {"type": "Point", "coordinates": [114.356, -8.21464]}, "properties": {"code": "BYJI"}}, {"type": "Feature", "geometry": {"type": "Point", "coordinates": [110.322, -7.89917]}, "properties": {"code": "BYJR"}}, {"type": "Feature", "geometry": {"type": "Point", "coordinates": [116.42, -8.2273]}, "properties": {"code": "BYLI"}}, {"type": "Feature", "geometry": {"type": "Point", "coordinates": [95.5767, 4.62861]}, "properties": {"code": "CASI"}}, {"type": "Feature", "geometry": {"type": "Point", "coordinates": [106.935, -6.69807]}, "properties": {"code": "CBJI"}}, {"type": "Feature", "geometry": {"type": "Point", "coordinates": [107.356, -6.93085]}, "properties": {"code": "CBJM"}}, {"type": "Feature", "geometry": {"type": "Point", "coordinates": [108.532, -6.73178]}, "properties": {"code": "CBJN"}}, {"type": "Feature", "geometry": {"type": "Point", "coordinates": [107.439, -6.7347]}, "properties": {"code": "CBJR"}}, {"type": "Feature", "geometry": {"type": "Point", "coordinates": [108.183, -7.5138]}, "properties": {"code": "CBTN"}}, {"type": "Feature", "geometry": {"type": "Point", "coordinates": [107.14, -7.01664]}, "properties": {"code": "CCJM"}}, {"type": "Feature", "geometry": {"type": "Point", "coordinates": [107.143, -6.9982]}, "properties": {"code": "CCJR"}}, {"type": "Feature", "geometry": {"type": "Point", "coordinates": [105.942, -6.03445]}, "properties": {"code": "CCSR"}}, {"type": "Feature", "geometry": {"type": "Point", "coordinates": [95.4167, 5.5222]}, "properties": {"code": "CEBI"}}, {"type": "Feature", "geometry": {"type": "Point", "coordinates": [95.3026, 5.501]}, "properties": {"code": "CEMA"}}, {"type": "Feature", "geometry": {"type": "Point", "coordinates": [95.4645, 5.4038]}, "properties": {"code": "CERI"}}, {"type": "Feature", "geometry": {"type": "Point", "coordinates": [108.196, -7.31741]}, "properties": {"code": "CIJI"}}, {"type": "Feature", "geometry": {"type": "Point", "coordinates": [108.185, -6.4926]}, "properties": {"code": "CIJM"}}, {"type": "Feature", "geometry": {"type": "Point", "coordinates": [107.347, -6.04192]}, "properties": {"code": "CIKJI"}}, {"type": "Feature", "geometry": {"type": "Point", "coordinates": [109.015, -7.7185]}, "properties": {"code": "CILA"}}, {"type": "Feature", "geometry": {"type": "Point", "coordinates": [106.316, -6.822]}, "properties": {"code": "CILJI"}}, {"type": "Feature", "geometry": {"type": "Point", "coordinates": [107.256, -7.3241]}, "properties": {"code": "CKTN"}}, {"type": "Feature", "geometry": {"type": "Point", "coordinates": [106.404, -6.5659]}, "properties": {"code": "CLJO"}}, {"type": "Feature", "geometry": {"type": "Point", "coordinates": [106.159, -6.73501]}, "properties": {"code": "CLJR"}}, {"type": "Feature", "geometry": {"type": "Point", "coordinates": [108.449, -7.78373]}, "properties": {"code": "CMJI"}}, {"type": "Feature", "geometry": {"type": "Point", "coordinates": [108.363, -7.3278]}, "properties": {"code": "CMJN"}}, {"type": "Feature", "geometry": {"type": "Point", "coordinates": [107.13, -7.30892]}, "properties": {"code": "CNJI"}}, {"type": "Feature", "geometry": {"type": "Point", "coordinates": [116.284, -8.89026]}, "properties": {"code": "CNLN"}}, {"type": "Feature", "geometry": {"type": "Point", "coordinates": [105.872, -6.72859]}, "properties": {"code": "CPJR"}}, {"type": "Feature", "geometry": {"type": "Point", "coordinates": [107.882, -6.40469]}, "properties": {"code": "CSBJI"}}, {"type": "Feature", "geometry": {"type": "Point", "coordinates": [106.521, -7.33017]}, "properties": {"code": "CSJI"}}, {"type": "Feature", "geometry": {"type": "Point", "coordinates": [108.01, -6.74052]}, "properties": {"code": "CSJM"}}, {"type": "Feature", "geometry": {"type": "Point", "coordinates": [106.825, -6.97278]}, "properties": {"code": "CSJR"}}, {"type": "Feature", "geometry": {"type": "Point", "coordinates": [107.501, -7.3774]}, "properties": {"code": "CSTN"}}, {"type": "Feature", "geometry": {"type": "Point", "coordinates": [109.184, -7.00755]}, "properties": {"code": "CTJI"}}, {"type": "Feature", "geometry": {"type": "Point", "coordinates": [107.445, -6.74231]}, "properties": {"code": "CWJM"}}, {"type": "Feature", "geometry": {"type": "Point", "coordinates": [106.744, -6.55425]}, "properties": {"code": "DBJI"}}, {"type": "Feature", "geometry": {"type": "Point", "coordinates": [114.908, -1.6792]}, "properties": {"code": "DBKI"}}, {"type": "Feature", "geometry": {"type": "Point", "coordinates": [118.595, -8.42408]}, "properties": {"code": "DBNFM"}}, {"type": "Feature", "geometry": {"type": "Point", "coordinates": [110.634, -6.89491]}, "properties": {"code": "DCJN"}}, {"type": "Feature", "geometry": {"type": "Point", "coordinates": [101.46, 1.66753]}, "properties": {"code": "DDSI"}}, {"type": "Feature", "geometry": {"type": "Point", "coordinates": [115.179, -8.738]}, "properties": {"code": "DEBI"}}, {"type": "Feature", "geometry": {"type": "Point", "coordinates": [115.177, -8.7498]}, "properties": {"code": "DEMO"}}, {"type": "Feature", "geometry": {"type": "Point", "coordinates": [119.749, -0.6758]}, "properties": {"code": "DOCM"}}, {"type": "Feature", "geometry": {"type": "Point", "coordinates": [106.924, -6.84605]}, "properties": {"code": "DSJR"}}, {"type": "Feature", "geometry": {"type": "Point", "coordinates": [111.525, -7.6566]}, "properties": {"code": "DTJN"}}, {"type": "Feature", "geometry": {"type": "Point", "coordinates": [110.205, -6.91916]}, "properties": {"code": "ECJN"}}, {"type": "Feature", "geometry": {"type": "Point", "coordinates": [121.69, -8.7498]}, "properties": {"code": "EDFI"}}, {"type": "Feature", "geometry": {"type": "Point", "coordinates": [139.585, -7.175]}, "properties": {"code": "EDMPI"}}, {"type": "Feature", "geometry": {"type": "Point", "coordinates": [102.277, -5.35261]}, "properties": {"code": "EGSI"}}, {"type": "Feature", "geometry": {"type": "Point", "coordinates": [140.789, -7.489]}, "properties": {"code": "ELMPI"}}, {"type": "Feature", "geometry": {"type": "Point", "coordinates": [136.381, -3.9267]}, "properties": {"code": "ERPN"}}, {"type": "Feature", "geometry": {"type": "Point", "coordinates": [106.519, -7.23296]}, "properties": {"code": "ESJR"}}, {"type": "Feature", "geometry": {"type": "Point", "coordinates": [117.96, -8.85]}, "properties": {"code": "ESNI"}}, {"type": "Feature", "geometry": {"type": "Point", "coordinates": [103.107, -3.61051]}, "properties": {"code": "ESSN"}}, {"type": "Feature", "geometry": {"type": "Point", "coordinates": [132.265, -2.9192]}, "properties": {"code": "FAKI"}}, {"type": "Feature", "geometry": {"type": "Point", "coordinates": [132.016, -1.1594]}, "properties": {"code": "FKSPI"}}, {"type": "Feature", "geometry": {"type": "Point", "coordinates": [129.9, -0.43465]}, "properties": {"code": "GARPI"}}, {"type": "Feature", "geometry": {"type": "Point", "coordinates": [109.966, -6.9485]}, "properties": {"code": "GBJI"}}, {"type": "Feature", "geometry": {"type": "Point", "coordinates": [107.63, -6.83]}, "properties": {"code": "GBJO"}}, {"type": "Feature", "geometry": {"type": "Point", "coordinates": [106.681, -6.64189]}, "properties": {"code": "GBJR"}}, {"type": "Feature", "geometry": {"type": "Point", "coordinates": [107.143, -7.2064]}, "properties": {"code": "GCJR"}}, {"type": "Feature", "geometry": {"type": "Point", "coordinates": [114.714, -8.164]}, "properties": {"code": "GEBBI"}}, {"type": "Feature", "geometry": {"type": "Point", "coordinates": [112.645, -8.41019]}, "properties": {"code": "GEJI"}}, {"type": "Feature", "geometry": {"type": "Point", "coordinates": [140.168, -2.5926]}, "properties": {"code": "GENI"}}, {"type": "Feature", "geometry": {"type": "Point", "coordinates": [96.1278, 4.8421]}, "properties": {"code": "GESM"}}, {"type": "Feature", "geometry": {"type": "Point", "coordinates": [111.204, -7.1717]}, "properties": {"code": "GGJM"}}, {"type": "Feature", "geometry": {"type": "Point", "coordinates": [123.011, 0.635871]}, "properties": {"code": "GGSN"}}, {"type": "Feature", "geometry": {"type": "Point", "coordinates": [127.88, -0.3562]}, "properties": {"code": "GHMI"}}, {"type": "Feature", "geometry": {"type": "Point", "coordinates": [110.592, -7.8411]}, "properties": {"code": "GKJM"}}, {"type": "Feature", "geometry": {"type": "Point", "coordinates": [113.444, -8.27321]}, "properties": {"code": "GMJI"}}, {"type": "Feature", "geometry": {"type": "Point", "coordinates": [96.093, 4.873]}, "properties": {"code": "GPSM"}}, {"type": "Feature", "geometry": {"type": "Point", "coordinates": [112.479, -6.91443]}, "properties": {"code": "GRJI"}}, {"type": "Feature", "geometry": {"type": "Point", "coordinates": [97.5754, 1.3036]}, "properties": {"code": "GSI"}}, {"type": "Feature", "geometry": {"type": "Point", "coordinates": [123.075, 0.53448]}, "properties": {"code": "GSNI"}}, {"type": "Feature", "geometry": {"type": "Point", "coordinates": [110.184, -7.16385]}, "properties": {"code": "GTJI"}}, {"type": "Feature", "geometry": {"type": "Point", "coordinates": [107.885, -7.20256]}, "properties": {"code": "GTJN"}}, {"type": "Feature", "geometry": {"type": "Point", "coordinates": [122.87, 0.7628]}, "properties": {"code": "GTOI"}}, {"type": "Feature", "geometry": {"type": "Point", "coordinates": [101.489, -0.5981]}, "properties": {"code": "GTSI"}}, {"type": "Feature", "geometry": {"type": "Point", "coordinates": [110.666, -7.05428]}, "properties": {"code": "GUJM"}}, {"type": "Feature", "geometry": {"type": "Point", "coordinates": [100.88, -1.09832]}, "properties": {"code": "HSSR"}}, {"type": "Feature", "geometry": {"type": "Point", "coordinates": [97.7845, 4.92405]}, "properties": {"code": "IATSM"}}, {"type": "Feature", "geometry": {"type": "Point", "coordinates": [108.342, -6.33498]}, "properties": {"code": "IBJN"}}, {"type": "Feature", "geometry": {"type": "Point", "coordinates": [123.265, -8.3894]}, "properties": {"code": "IBTI"}}, {"type": "Feature", "geometry": {"type": "Point", "coordinates": [115.146, -8.8181]}, "properties": {"code": "IGBI"}}, {"type": "Feature", "geometry": {"type": "Point", "coordinates": [127.556, 1.5082]}, "properties": {"code": "IHMI"}}, {"type": "Feature", "geometry": {"type": "Point", "coordinates": [103.17, 0.02]}, "properties": {"code": "IHRSI"}}, {"type": "Feature", "geometry": {"type": "Point", "coordinates": [105.315, -5.35772]}, "properties": {"code": "ILSN"}}, {"type": "Feature", "geometry": {"type": "Point", "coordinates": [102.675, -4.22711]}, "properties": {"code": "ISSR"}}, {"type": "Feature", "geometry": {"type": "Point", "coordinates": [112.794, -7.28478]}, "properties": {"code": "ITSU"}}, {"type": "Feature", "geometry": {"type": "Point", "coordinates": [134.516, -2.7581]}, "properties": {"code": "IWPI"}}, {"type": "Feature", "geometry": {"type": "Point", "coordinates": [96.82, 3.766]}, "properties": {"code": "JAASI"}}, {"type": "Feature", "geometry": {"type": "Point", "coordinates": [106.757, -6.3031]}, "properties": {"code": "JABI"}}, {"type": "Feature", "geometry": {"type": "Point", "coordinates": [106.679, -6.1237]}, "properties": {"code": "JACE"}}, {"type": "Feature", "geometry": {"type": "Point", "coordinates": [114.152, -8.4703]}, "properties": {"code": "JAGI"}}, {"type": "Feature", "geometry": {"type": "Point", "coordinates": [106.829, -6.1815]}, "properties": {"code": "JAKO"}}, {"type": "Feature", "geometry": {"type": "Point", "coordinates": [106.751, -6.2612]}, "properties": {"code": "JAPE"}}, {"type": "Feature", "geometry": {"type": "Point", "coordinates": [106.564, -6.2867]}, "properties": {"code": "JARU"}}, {"type": "Feature", "geometry": {"type": "Point", "coordinates": [101.458, -1.41453]}, "properties": {"code": "JASI"}}, {"type": "Feature", "geometry": {"type": "Point", "coordinates": [95.5822, 4.63568]}, "properties": {"code": "JASN"}}, {"type": "Feature", "geometry": {"type": "Point", "coordinates": [106.88, -6.1079]}, "properties": {"code": "JATA"}}, {"type": "Feature", "geometry": {"type": "Point", "coordinates": [106.827, -6.36945]}, "properties": {"code": "JAUI"}}, {"type": "Feature", "geometry": {"type": "Point", "coordinates": [106.47, -6.48374]}, "properties": {"code": "JBJI"}}, {"type": "Feature", "geometry": {"type": "Point", "coordinates": [111.459, -6.9729]}, "properties": {"code": "JBJM"}}, {"type": "Feature", "geometry": {"type": "Point", "coordinates": [108.263, -6.73439]}, "properties": {"code": "JCJI"}}, {"type": "Feature", "geometry": {"type": "Point", "coordinates": [110.672, -6.59493]}, "properties": {"code": "JCJN"}}, {"type": "Feature", "geometry": {"type": "Point", "coordinates": [127.478, 1.082]}, "properties": {"code": "JHMI"}}, {"type": "Feature", "geometry": {"type": "Point", "coordinates": [140.518, -2.5757]}, "properties": {"code": "JMPI"}}, {"type": "Feature", "geometry": {"type": "Point", "coordinates": [101.887, -2.63715]}, "properties": {"code": "JMSI"}}, {"type": "Feature", "geometry": {"type": "Point", "coordinates": [107.418, -6.53066]}, "properties": {"code": "JPJI"}}, {"type": "Feature", "geometry": {"type": "Point", "coordinates": [100.587, -1.3416]}, "properties": {"code": "JPSI"}}, {"type": "Feature", "geometry": {"type": "Point", "coordinates": [100.586, -1.34134]}, "properties": {"code": "JPSR"}}, {"type": "Feature", "geometry": {"type": "Point", "coordinates": [116.816, -8.87166]}, "properties": {"code": "JSBFM"}}, {"type": "Feature", "geometry": {"type": "Point", "coordinates": [112.714, -7.32203]}, "properties": {"code": "JSJN"}}, {"type": "Feature", "geometry": {"type": "Point", "coordinates": [106.625, -7.25706]}, "properties": {"code": "JSJR"}}, {"type": "Feature", "geometry": {"type": "Point", "coordinates": [111.118, -7.33637]}, "properties": {"code": "JSRJI"}}, {"type": "Feature", "geometry": {"type": "Point", "coordinates": [106.8, -7.0569]}, "properties": {"code": "JTJM"}}, {"type": "Feature", "geometry": {"type": "Point", "coordinates": [111.621, -7.2707]}, "properties": {"code": "JTJN"}}, {"type": "Feature", "geometry": {"type": "Point", "coordinates": [110.41, -7.68]}, "properties": {"code": "JUII"}}, {"type": "Feature", "geometry": {"type": "Point", "coordinates": [110.731, -7.20624]}, "properties": {"code": "JWJM"}}, {"type": "Feature", "geometry": {"type": "Point", "coordinates": [116.242, -0.750684]}, "properties": {"code": "KABKI"}}, {"type": "Feature", "geometry": {"type": "Point", "coordinates": [117.75, 1.36689]}, "properties": {"code": "KAKKI"}}, {"type": "Feature", "geometry": {"type": "Point", "coordinates": [130.991, -0.061]}, "properties": {"code": "KARPI"}}, {"type": "Feature", "geometry": {"type": "Point", "coordinates": [97.8582, 2.49189]}, "properties": {"code": "KASAI"}}, {"type": "Feature", "geometry": {"type": "Point", "coordinates": [104.496, -5.52348]}, "properties": {"code": "KASI"}}, {"type": "Feature", "geometry": {"type": "Point", "coordinates": [115.255, -8.286]}, "properties": {"code": "KBBI"}}, {"type": "Feature", "geometry": {"type": "Point", "coordinates": [111.233, -7.0505]}, "properties": {"code": "KBJM"}}, {"type": "Feature", "geometry": {"type": "Point", "coordinates": [116.167, -3.29951]}, "properties": {"code": "KBKI"}}, {"type": "Feature", "geometry": {"type": "Point", "coordinates": [112.925, 0.879463]}, "properties": {"code": "KBKN"}}, {"type": "Feature", "geometry": {"type": "Point", "coordinates": [101.82, -3.38244]}, "properties": {"code": "KBSR"}}, {"type": "Feature", "geometry": {"type": "Point", "coordinates": [118.993, -9.593]}, "properties": {"code": "KBSSI"}}, {"type": "Feature", "geometry": {"type": "Point", "coordinates": [110.597, -7.70199]}, "properties": {"code": "KCJN"}}, {"type": "Feature", "geometry": {"type": "Point", "coordinates": [107.111, -6.9064]}, "properties": {"code": "KCJR"}}, {"type": "Feature", "geometry": {"type": "Point", "coordinates": [97.7716, 3.52219]}, "properties": {"code": "KCSI"}}, {"type": "Feature", "geometry": {"type": "Point", "coordinates": [122.852, 0.6397]}, "properties": {"code": "KGCM"}}, {"type": "Feature", "geometry": {"type": "Point", "coordinates": [115.609, -8.3638]}, "properties": {"code": "KHBO"}}, {"type": "Feature", "geometry": {"type": "Point", "coordinates": [119.945, -9.801]}, "properties": {"code": "KHSSI"}}, {"type": "Feature", "geometry": {"type": "Point", "coordinates": [107.92, -6.86072]}, "properties": {"code": "KJJR"}}, {"type": "Feature", "geometry": {"type": "Point", "coordinates": [110.057, -7.84338]}, "properties": {"code": "KKJM"}}, {"type": "Feature", "geometry": {"type": "Point", "coordinates": [110.169, -7.84773]}, "properties": {"code": "KKJR"}}, {"type": "Feature", "geometry": {"type": "Point", "coordinates": [113.42, -1.87114]}, "properties": {"code": "KKKKI"}}, {"type": "Feature", "geometry": {"type": "Point", "coordinates": [132.718, -5.6924]}, "properties": {"code": "KKMI"}}, {"type": "Feature", "geometry": {"type": "Point", "coordinates": [121.651, -4.17182]}, "properties": {"code": "KKSI"}}, {"type": "Feature", "geometry": {"type": "Point", "coordinates": [116.949, 1.18609]}, "properties": {"code": "KKTKI"}}, {"type": "Feature", "geometry": {"type": "Point", "coordinates": [104.87, -4.83641]}, "properties": {"code": "KLI"}}, {"type": "Feature", "geometry": {"type": "Point", "coordinates": [113.252, -7.99497]}, "properties": {"code": "KLJI"}}, {"type": "Feature", "geometry": {"type": "Point", "coordinates": [121.611, -4.1805]}, "properties": {"code": "KLKI"}}, {"type": "Feature", "geometry": {"type": "Point", "coordinates": [116.095, -8.42199]}, "properties": {"code": "KLNI"}}, {"type": "Feature", "geometry": {"type": "Point", "coordinates": [97.3298, 3.0863]}, "properties": {"code": "KLSM"}}, {"type": "Feature", "geometry": {"type": "Point", "coordinates": [120.313, -8.56542]}, "properties": {"code": "KMBFM"}}, {"type": "Feature", "geometry": {"type": "Point", "coordinates": [110.207, -7.61027]}, "properties": {"code": "KMJR"}}, {"type": "Feature", "geometry": {"type": "Point", "coordinates": [113.916, -7.0411]}, "properties": {"code": "KMMI"}}, {"type": "Feature", "geometry": {"type": "Point", "coordinates": [116.1, -8.5883]}, "properties": {"code": "KMNI"}}, {"type": "Feature", "geometry": {"type": "Point", "coordinates": [133.704, -3.66166]}, "properties": {"code": "KMPI"}}, {"type": "Feature", "geometry": {"type": "Point", "coordinates": [119.572, -4.9976]}, "properties": {"code": "KMRS"}}, {"type": "Feature", "geometry": {"type": "Point", "coordinates": [123.988, 0.574507]}, "properties": {"code": "KMSI"}}, {"type": "Feature", "geometry": {"type": "Point", "coordinates": [98.8615, 3.59525]}, "properties": {"code": "KNSN"}}, {"type": "Feature", "geometry": {"type": "Point", "coordinates": [119.547, -8.536]}, "properties": {"code": "KOMFI"}}, {"type": "Feature", "geometry": {"type": "Point", "coordinates": [129.845, -1.158]}, "properties": {"code": "KORPI"}}, {"type": "Feature", "geometry": {"type": "Point", "coordinates": [108.931, -7.33321]}, "properties": {"code": "KPJI"}}, {"type": "Feature", "geometry": {"type": "Point", "coordinates": [111.928, -7.1883]}, "properties": {"code": "KPJM"}}, {"type": "Feature", "geometry": {"type": "Point", "coordinates": [103.939, -5.21058]}, "properties": {"code": "KPSR"}}, {"type": "Feature", "geometry": {"type": "Point", "coordinates": [128.395, -3.31831]}, "properties": {"code": "KRAI"}}, {"type": "Feature", "geometry": {"type": "Point", "coordinates": [101.462, -2.09121]}, "properties": {"code": "KRJI"}}, {"type": "Feature", "geometry": {"type": "Point", "coordinates": [110.434, -5.86856]}, "properties": {"code": "KRMJI"}}, {"type": "Feature", "geometry": {"type": "Point", "coordinates": [102.593, -3.65083]}, "properties": {"code": "KSI"}}, {"type": "Feature", "geometry": {"type": "Point", "coordinates": [106.662, -6.83145]}, "properties": {"code": "KSJR"}}, {"type": "Feature", "geometry": {"type": "Point", "coordinates": [109.266, -7.29336]}, "properties": {"code": "KSPJI"}}, {"type": "Feature", "geometry": {"type": "Point", "coordinates": [131.579, -7.669]}, "properties": {"code": "KTMI"}}, {"type": "Feature", "geometry": {"type": "Point", "coordinates": [104.641, -5.4886]}, "properties": {"code": "KTSR"}}, {"type": "Feature", "geometry": {"type": "Point", "coordinates": [124.534, -10.0135]}, "properties": {"code": "KTTI"}}, {"type": "Feature", "geometry": {"type": "Point", "coordinates": [123.187, -4.78121]}, "properties": {"code": "KUBSI"}}, {"type": "Feature", "geometry": {"type": "Point", "coordinates": [123.67, -10.168]}, "properties": {"code": "KUEL"}}, {"type": "Feature", "geometry": {"type": "Point", "coordinates": [123.589, -10.1638]}, "properties": {"code": "KUGE"}}, {"type": "Feature", "geometry": {"type": "Point", "coordinates": [115.631, -0.0394]}, "properties": {"code": "KUKI"}}, {"type": "Feature", "geometry": {"type": "Point", "coordinates": [123.666, -10.138]}, "properties": {"code": "KULA"}}, {"type": "Feature", "geometry": {"type": "Point", "coordinates": [97.3707, 3.1964]}, "properties": {"code": "KUSI"}}, {"type": "Feature", "geometry": {"type": "Point", "coordinates": [98.5073, 3.11998]}, "properties": {"code": "KUSN"}}, {"type": "Feature", "geometry": {"type": "Point", "coordinates": [124.918, 1.5013]}, "properties": {"code": "KWSI"}}, {"type": "Feature", "geometry": {"type": "Point", "coordinates": [110.387, -7.79915]}, "properties": {"code": "KYJR"}}, {"type": "Feature", "geometry": {"type": "Point", "coordinates": [119.886, -8.4866]}, "properties": {"code": "LABA"}}, {"type": "Feature", "geometry": {"type": "Point", "coordinates": [120.236, -1.87054]}, "properties": {"code": "LAPSI"}}, {"type": "Feature", "geometry": {"type": "Point", "coordinates": [97.9704, 4.4572]}, "properties": {"code": "LASI"}}, {"type": "Feature", "geometry": {"type": "Point", "coordinates": [105.311, -5.45545]}, "properties": {"code": "LATA"}}, {"type": "Feature", "geometry": {"type": "Point", "coordinates": [119.86, -0.62032]}, "properties": {"code": "LBDSI"}}, {"type": "Feature", "geometry": {"type": "Point", "coordinates": [119.892, -8.4836]}, "properties": {"code": "LBFI"}}, {"type": "Feature", "geometry": {"type": "Point", "coordinates": [108.263, -6.73432]}, "properties": {"code": "LBJN"}}, {"type": "Feature", "geometry": {"type": "Point", "coordinates": [127.501, -0.637901]}, "properties": {"code": "LBMI"}}, {"type": "Feature", "geometry": {"type": "Point", "coordinates": [119.012, -8.6017]}, "properties": {"code": "LBNFM"}}, {"type": "Feature", "geometry": {"type": "Point", "coordinates": [100.625, -0.475]}, "properties": {"code": "LBTSI"}}, {"type": "Feature", "geometry": {"type": "Point", "coordinates": [109.66, -6.89223]}, "properties": {"code": "LCJN"}}, {"type": "Feature", "geometry": {"type": "Point", "coordinates": [107.162, -6.86637]}, "properties": {"code": "LCJR"}}, {"type": "Feature", "geometry": {"type": "Point", "coordinates": [98.1605, 2.88948]}, "properties": {"code": "LDSI"}}, {"type": "Feature", "geometry": {"type": "Point", "coordinates": [120.172, -8.707]}, "properties": {"code": "LEMFI"}}, {"type": "Feature", "geometry": {"type": "Point", "coordinates": [103.713, -4.96147]}, "properties": {"code": "LESM"}}, {"type": "Feature", "geometry": {"type": "Point", "coordinates": [123.001, -8.2754]}, "properties": {"code": "LFTI"}}, {"type": "Feature", "geometry": {"type": "Point", "coordinates": [96.9469, 5.2286]}, "properties": {"code": "LHMI"}}, {"type": "Feature", "geometry": {"type": "Point", "coordinates": [103.523, -3.82669]}, "properties": {"code": "LHSI"}}, {"type": "Feature", "geometry": {"type": "Point", "coordinates": [103.574, -4.17797]}, "properties": {"code": "LHSM"}}, {"type": "Feature", "geometry": {"type": "Point", "coordinates": [96.7875, 4.4785]}, "properties": {"code": "LISM"}}, {"type": "Feature", "geometry": {"type": "Point", "coordinates": [139.945, -3.1271]}, "properties": {"code": "LJPI"}}, {"type": "Feature", "geometry": {"type": "Point", "coordinates": [120.886, -3.4921]}, "properties": {"code": "LKCI"}}, {"type": "Feature", "geometry": {"type": "Point", "coordinates": [100.601, 0.1845]}, "properties": {"code": "LKSM"}}, {"type": "Feature", "geometry": {"type": "Point", "coordinates": [122.233, -3.2924]}, "properties": {"code": "LKUCM"}}, {"type": "Feature", "geometry": {"type": "Point", "coordinates": [102.914, -3.27843]}, "properties": {"code": "LLSI"}}, {"type": "Feature", "geometry": {"type": "Point", "coordinates": [101.903, -2.37864]}, "properties": {"code": "LMJSI"}}, {"type": "Feature", "geometry": {"type": "Point", "coordinates": [120.477, -8.6011]}, "properties": {"code": "LMTI"}}, {"type": "Feature", "geometry": {"type": "Point", "coordinates": [122.742, -4.91095]}, "properties": {"code": "LOMSI"}}, {"type": "Feature", "geometry": {"type": "Point", "coordinates": [119.538, -3.5012]}, "properties": {"code": "LPCM"}}, {"type": "Feature", "geometry": {"type": "Point", "coordinates": [108.402, -7.50391]}, "properties": {"code": "LPJR"}}, {"type": "Feature", "geometry": {"type": "Point", "coordinates": [100.72, -1.7082]}, "properties": {"code": "LPSM"}}, {"type": "Feature", "geometry": {"type": "Point", "coordinates": [123.001, -8.27524]}, "properties": {"code": "LRTI"}}, {"type": "Feature", "geometry": {"type": "Point", "coordinates": [119.899, -4.365]}, "properties": {"code": "LSCM"}}, {"type": "Feature", "geometry": {"type": "Point", "coordinates": [106.692, -7.1312]}, "properties": {"code": "LSJR"}}, {"type": "Feature", "geometry": {"type": "Point", "coordinates": [117.18, -8.96]}, "properties": {"code": "LSNI"}}, {"type": "Feature", "geometry": {"type": "Point", "coordinates": [121.1, -2.614]}, "properties": {"code": "LSSN"}}, {"type": "Feature", "geometry": {"type": "Point", "coordinates": [112.167, -8.09521]}, "properties": {"code": "LTJN"}}, {"type": "Feature", "geometry": {"type": "Point", "coordinates": [116.48, -8.75]}, "properties": {"code": "LTNI"}}, {"type": "Feature", "geometry": {"type": "Point", "coordinates": [98.9305, 1.52936]}, "properties": {"code": "LTSM"}}, {"type": "Feature", "geometry": {"type": "Point", "coordinates": [120.323, -1.4262]}, "properties": {"code": "LUCM"}}, {"type": "Feature", "geometry": {"type": "Point", "coordinates": [113.011, -7.826]}, "properties": {"code": "LUJI"}}, {"type": "Feature", "geometry": {"type": "Point", "coordinates": [122.772, -1.0418]}, "properties": {"code": "LUWI"}}, {"type": "Feature", "geometry": {"type": "Point", "coordinates": [104.059, -5.0175]}, "properties": {"code": "LWLI"}}, {"type": "Feature", "geometry": {"type": "Point", "coordinates": [118.568, 2.2433]}, "properties": {"code": "MABKI"}}, {"type": "Feature", "geometry": {"type": "Point", "coordinates": [115.505, -8.487]}, "properties": {"code": "MAKBI"}}, {"type": "Feature", "geometry": {"type": "Point", "coordinates": [108.797, -1.5823]}, "properties": {"code": "MAKKI"}}, {"type": "Feature", "geometry": {"type": "Point", "coordinates": [112.598, -7.90112]}, "properties": {"code": "MAKO"}}, {"type": "Feature", "geometry": {"type": "Point", "coordinates": [134.051, -0.8903]}, "properties": {"code": "MAPI"}}, {"type": "Feature", "geometry": {"type": "Point", "coordinates": [122.032, -8.537]}, "properties": {"code": "MASFI"}}, {"type": "Feature", "geometry": {"type": "Point", "coordinates": [102.24, -3.14152]}, "properties": {"code": "MASI"}}, {"type": "Feature", "geometry": {"type": "Point", "coordinates": [125.479, 4.733]}, "properties": {"code": "MASSI"}}, {"type": "Feature", "geometry": {"type": "Point", "coordinates": [102.098, -1.5406]}, "properties": {"code": "MBBI"}}, {"type": "Feature", "geometry": {"type": "Point", "coordinates": [109.632, -7.44889]}, "properties": {"code": "MBJI"}}, {"type": "Feature", "geometry": {"type": "Point", "coordinates": [110.689, -7.56834]}, "properties": {"code": "MBJN"}}, {"type": "Feature", "geometry": {"type": "Point", "coordinates": [130.407, -1.771]}, "properties": {"code": "MBRPI"}}, {"type": "Feature", "geometry": {"type": "Point", "coordinates": [101.837, -3.1451]}, "properties": {"code": "MBSM"}}, {"type": "Feature", "geometry": {"type": "Point", "coordinates": [119.36, -2.9597]}, "properties": {"code": "MBSN"}}, {"type": "Feature", "geometry": {"type": "Point", "coordinates": [102.894, -4.44095]}, "properties": {"code": "MBSR"}}, {"type": "Feature", "geometry": {"type": "Point", "coordinates": [104.178, -4.48603]}, "properties": {"code": "MDSI"}}, {"type": "Feature", "geometry": {"type": "Point", "coordinates": [98.7148, 3.7881]}, "properties": {"code": "MEBA"}}, {"type": "Feature", "geometry": {"type": "Point", "coordinates": [98.674, 3.5395]}, "properties": {"code": "MEBW"}}, {"type": "Feature", "geometry": {"type": "Point", "coordinates": [98.7148, 3.6216]}, "properties": {"code": "MESA"}}, {"type": "Feature", "geometry": {"type": "Point", "coordinates": [126.67, 4.0079]}, "properties": {"code": "MGAI"}}, {"type": "Feature", "geometry": {"type": "Point", "coordinates": [107.692, -7.4098]}, "properties": {"code": "MGJR"}}, {"type": "Feature", "geometry": {"type": "Point", "coordinates": [140.709, -5.879]}, "properties": {"code": "MIBPI"}}, {"type": "Feature", "geometry": {"type": "Point", "coordinates": [136.893, -4.5301]}, "properties": {"code": "MIPI"}}, {"type": "Feature", "geometry": {"type": "Point", "coordinates": [126.581, 5.55261]}, "properties": {"code": "MISSI"}}, {"type": "Feature", "geometry": {"type": "Point", "coordinates": [118.98, -3.5505]}, "properties": {"code": "MJNE"}}, {"type": "Feature", "geometry": {"type": "Point", "coordinates": [101.24, -2.44742]}, "properties": {"code": "MKBI"}}, {"type": "Feature", "geometry": {"type": "Point", "coordinates": [110.483, -7.6629]}, "properties": {"code": "MKJM"}}, {"type": "Feature", "geometry": {"type": "Point", "coordinates": [119.47, -5.21776]}, "properties": {"code": "MKS"}}, {"type": "Feature", "geometry": {"type": "Point", "coordinates": [103.36, -4.5288]}, "properties": {"code": "MKSM"}}, {"type": "Feature", "geometry": {"type": "Point", "coordinates": [103.36, -4.52815]}, "properties": {"code": "MKSR"}}, {"type": "Feature", "geometry": {"type": "Point", "coordinates": [112.451, -8.15214]}, "properties": {"code": "MLJI"}}, {"type": "Feature", "geometry": {"type": "Point", "coordinates": [112.338, -7.2483]}, "properties": {"code": "MLJM"}}, {"type": "Feature", "geometry": {"type": "Point", "coordinates": [108.24, -6.83761]}, "properties": {"code": "MLJN"}}, {"type": "Feature", "geometry": {"type": "Point", "coordinates": [106.02, -6.77862]}, "properties": {"code": "MLJR"}}, {"type": "Feature", "geometry": {"type": "Point", "coordinates": [96.404, 4.26685]}, "properties": {"code": "MLSI"}}, {"type": "Feature", "geometry": {"type": "Point", "coordinates": [105.324, -5.11354]}, "properties": {"code": "MLSN"}}, {"type": "Feature", "geometry": {"type": "Point", "coordinates": [119.363, -2.9559]}, "properties": {"code": "MMCI"}}, {"type": "Feature", "geometry": {"type": "Point", "coordinates": [140.414, -8.51813]}, "properties": {"code": "MMPI"}}, {"type": "Feature", "geometry": {"type": "Point", "coordinates": [122.238, -8.6357]}, "properties": {"code": "MMRI"}}, {"type": "Feature", "geometry": {"type": "Point", "coordinates": [118.909, -2.6892]}, "properties": {"code": "MMSI"}}, {"type": "Feature", "geometry": {"type": "Point", "coordinates": [118.85, -2.66655]}, "properties": {"code": "MMSN"}}, {"type": "Feature", "geometry": {"type": "Point", "coordinates": [102.956, -4.3604]}, "properties": {"code": "MNAI"}}, {"type": "Feature", "geometry": {"type": "Point", "coordinates": [124.839, 1.44361]}, "properties": {"code": "MNI"}}, {"type": "Feature", "geometry": {"type": "Point", "coordinates": [99.5796, 0.795464]}, "properties": {"code": "MNSI"}}, {"type": "Feature", "geometry": {"type": "Point", "coordinates": [119.898, 0.337285]}, "properties": {"code": "MPSI"}}, {"type": "Feature", "geometry": {"type": "Point", "coordinates": [100.138, 0.5891]}, "properties": {"code": "MPSM"}}, {"type": "Feature", "geometry": {"type": "Point", "coordinates": [121.94, 0.477088]}, "properties": {"code": "MRSI"}}, {"type": "Feature", "geometry": {"type": "Point", "coordinates": [128.928, -3.34616]}, "properties": {"code": "MSAI"}}, {"type": "Feature", "geometry": {"type": "Point", "coordinates": [120.324, -2.5546]}, "properties": {"code": "MSBA"}}, {"type": "Feature", "geometry": {"type": "Point", "coordinates": [120.281, -2.5358]}, "properties": {"code": "MSCM"}}, {"type": "Feature", "geometry": {"type": "Point", "coordinates": [128.425, 0.629]}, "properties": {"code": "MSHHI"}}, {"type": "Feature", "geometry": {"type": "Point", "coordinates": [128.276, 2.19778]}, "properties": {"code": "MTAI"}}, {"type": "Feature", "geometry": {"type": "Point", "coordinates": [121.054, -2.5738]}, "properties": {"code": "MTCM"}}, {"type": "Feature", "geometry": {"type": "Point", "coordinates": [112.465, -7.49661]}, "properties": {"code": "MTJN"}}, {"type": "Feature", "geometry": {"type": "Point", "coordinates": [114.896, -0.941908]}, "properties": {"code": "MTKI"}}, {"type": "Feature", "geometry": {"type": "Point", "coordinates": [116.1, -8.56423]}, "properties": {"code": "MTLN"}}, {"type": "Feature", "geometry": {"type": "Point", "coordinates": [138.037, -2.305]}, "properties": {"code": "MTMPI"}}, {"type": "Feature", "geometry": {"type": "Point", "coordinates": [98.2524, 2.1524]}, "properties": {"code": "MTSI"}}, {"type": "Feature", "geometry": {"type": "Point", "coordinates": [103.506, -4.4793]}, "properties": {"code": "MTSM"}}, {"type": "Feature", "geometry": {"type": "Point", "coordinates": [122.727, -4.8315]}, "properties": {"code": "MTSN"}}, {"type": "Feature", "geometry": {"type": "Point", "coordinates": [124.028, 0.877132]}, "properties": {"code": "MUSN"}}, {"type": "Feature", "geometry": {"type": "Point", "coordinates": [98.965, 2.3]}, "properties": {"code": "MUTSI"}}, {"type": "Feature", "geometry": {"type": "Point", "coordinates": [121.302, -8.761]}, "properties": {"code": "NANFI"}}, {"type": "Feature", "geometry": {"type": "Point", "coordinates": [112.334, -8.17472]}, "properties": {"code": "NBJR"}}, {"type": "Feature", "geometry": {"type": "Point", "coordinates": [101.869, -3.19227]}, "properties": {"code": "NBSR"}}, {"type": "Feature", "geometry": {"type": "Point", "coordinates": [114.617, -8.3408]}, "properties": {"code": "NEKI"}}, {"type": "Feature", "geometry": {"type": "Point", "coordinates": [111.461, -7.36762]}, "properties": {"code": "NGJI"}}, {"type": "Feature", "geometry": {"type": "Point", "coordinates": [114.617, -8.30984]}, "properties": {"code": "NJBM"}}, {"type": "Feature", "geometry": {"type": "Point", "coordinates": [104.28, -5.19495]}, "properties": {"code": "NJLSI"}}, {"type": "Feature", "geometry": {"type": "Point", "coordinates": [115.526, -8.72612]}, "properties": {"code": "NKBI"}}, {"type": "Feature", "geometry": {"type": "Point", "coordinates": [110.567, -1.5605]}, "properties": {"code": "NKKI"}}, {"type": "Feature", "geometry": {"type": "Point", "coordinates": [119.974, -1.38543]}, "properties": {"code": "NKLSI"}}, {"type": "Feature", "geometry": {"type": "Point", "coordinates": [127.1, -3.23895]}, "properties": {"code": "NLAI"}}, {"type": "Feature", "geometry": {"type": "Point", "coordinates": [117.666, 4.13516]}, "properties": {"code": "NNKI"}}, {"type": "Feature", "geometry": {"type": "Point", "coordinates": [113.813, -7.935]}, "properties": {"code": "NTJN"}}, {"type": "Feature", "geometry": {"type": "Point", "coordinates": [127.644, -1.34136]}, "properties": {"code": "OBMI"}}, {"type": "Feature", "geometry": {"type": "Point", "coordinates": [139.3, -6.555]}, "properties": {"code": "OBMPI"}}, {"type": "Feature", "geometry": {"type": "Point", "coordinates": [98.6301, 2.1599]}, "properties": {"code": "ONSM"}}, {"type": "Feature", "geometry": {"type": "Point", "coordinates": [120.18, -3.0187]}, "properties": {"code": "OSSN"}}, {"type": "Feature", "geometry": {"type": "Point", "coordinates": [112.237, -7.55311]}, "properties": {"code": "OTJN"}}, {"type": "Feature", "geometry": {"type": "Point", "coordinates": [124.302, 0.735226]}, "properties": {"code": "OUSN"}}, {"type": "Feature", "geometry": {"type": "Point", "coordinates": [95.129, 5.671]}, "properties": {"code": "PAASI"}}, {"type": "Feature", "geometry": {"type": "Point", "coordinates": [104.703, -2.9171]}, "properties": {"code": "PABA"}}, {"type": "Feature", "geometry": {"type": "Point", "coordinates": [99.8719, 0.1236]}, "properties": {"code": "PABI"}}, {"type": "Feature", "geometry": {"type": "Point", "coordinates": [115.364, -3.11217]}, "properties": {"code": "PABKI"}}, {"type": "Feature", "geometry": {"type": "Point", "coordinates": [124.128, -8.3832]}, "properties": {"code": "PAFM"}}, {"type": "Feature", "geometry": {"type": "Point", "coordinates": [100.382, -0.2504]}, "properties": {"code": "PAGA"}}, {"type": "Feature", "geometry": {"type": "Point", "coordinates": [104.721, -3.0326]}, "properties": {"code": "PAKE"}}, {"type": "Feature", "geometry": {"type": "Point", "coordinates": [116.18, -1.84]}, "properties": {"code": "PAKI"}}, {"type": "Feature", "geometry": {"type": "Point", "coordinates": [100.379, -0.466]}, "properties": {"code": "PAPA"}}, {"type": "Feature", "geometry": {"type": "Point", "coordinates": [119.905, -0.915969]}, "properties": {"code": "PASI"}}, {"type": "Feature", "geometry": {"type": "Point", "coordinates": [105.983, -6.212]}, "properties": {"code": "PASJI"}}, {"type": "Feature", "geometry": {"type": "Point", "coordinates": [100.203, -2.9646]}, "properties": {"code": "PASMI"}}, {"type": "Feature", "geometry": {"type": "Point", "coordinates": [96.2442, 5.2255]}, "properties": {"code": "PASN"}}, {"type": "Feature", "geometry": {"type": "Point", "coordinates": [100.752, -0.87203]}, "properties": {"code": "PASSI"}}, {"type": "Feature", "geometry": {"type": "Point", "coordinates": [124.04, 0.3831]}, "properties": {"code": "PBCI"}}, {"type": "Feature", "geometry": {"type": "Point", "coordinates": [107.476, -7.0874]}, "properties": {"code": "PBJI"}}, {"type": "Feature", "geometry": {"type": "Point", "coordinates": [110.343, -7.95583]}, "properties": {"code": "PBJR"}}, {"type": "Feature", "geometry": {"type": "Point", "coordinates": [109.338, -0.020446]}, "properties": {"code": "PBKN"}}, {"type": "Feature", "geometry": {"type": "Point", "coordinates": [116.278, -8.8218]}, "properties": {"code": "PBLI"}}, {"type": "Feature", "geometry": {"type": "Point", "coordinates": [124.282, 0.99529]}, "properties": {"code": "PBMSI"}}, {"type": "Feature", "geometry": {"type": "Point", "coordinates": [118.57, -8.79]}, "properties": {"code": "PBNI"}}, {"type": "Feature", "geometry": {"type": "Point", "coordinates": [98.28, -0.054642]}, "properties": {"code": "PBSI"}}, {"type": "Feature", "geometry": {"type": "Point", "coordinates": [119.33, -3.34]}, "properties": {"code": "PBSN"}}, {"type": "Feature", "geometry": {"type": "Point", "coordinates": [119.837, -0.90528]}, "properties": {"code": "PCI"}}, {"type": "Feature", "geometry": {"type": "Point", "coordinates": [111.177, -8.19456]}, "properties": {"code": "PCJI"}}, {"type": "Feature", "geometry": {"type": "Point", "coordinates": [109.38, -6.90261]}, "properties": {"code": "PCJN"}}, {"type": "Feature", "geometry": {"type": "Point", "coordinates": [108.648, -7.68209]}, "properties": {"code": "PCJR"}}, {"type": "Feature", "geometry": {"type": "Point", "coordinates": [117.873, -8.1037]}, "properties": {"code": "PDLI"}}, {"type": "Feature", "geometry": {"type": "Point", "coordinates": [101.447, 0.4592]}, "properties": {"code": "PESI"}}, {"type": "Feature", "geometry": {"type": "Point", "coordinates": [97.5888, 4.10845]}, "properties": {"code": "PGASI"}}, {"type": "Feature", "geometry": {"type": "Point", "coordinates": [110.414, -8.0102]}, "properties": {"code": "PGJM"}}, {"type": "Feature", "geometry": {"type": "Point", "coordinates": [107.728, -7.64554]}, "properties": {"code": "PGJR"}}, {"type": "Feature", "geometry": {"type": "Point", "coordinates": [120.089, -0.7109]}, "properties": {"code": "PICM"}}, {"type": "Feature", "geometry": {"type": "Point", "coordinates": [113.478, -8.37146]}, "properties": {"code": "PJJR"}}, {"type": "Feature", "geometry": {"type": "Point", "coordinates": [122.344, -4.3507]}, "properties": {"code": "PKCI"}}, {"type": "Feature", "geometry": {"type": "Point", "coordinates": [109.58, -7.1678]}, "properties": {"code": "PKJI"}}, {"type": "Feature", "geometry": {"type": "Point", "coordinates": [108.44, -6.79585]}, "properties": {"code": "PKJM"}}, {"type": "Feature", "geometry": {"type": "Point", "coordinates": [113.972, -2.24105]}, "properties": {"code": "PKKI"}}, {"type": "Feature", "geometry": {"type": "Point", "coordinates": [103.264, -4.0428]}, "properties": {"code": "PKSI"}}, {"type": "Feature", "geometry": {"type": "Point", "coordinates": [117.776, -8.8273]}, "properties": {"code": "PLAI"}}, {"type": "Feature", "geometry": {"type": "Point", "coordinates": [112.155, -7.8616]}, "properties": {"code": "PLJI"}}, {"type": "Feature", "geometry": {"type": "Point", "coordinates": [100.554, 0.237274]}, "properties": {"code": "PLSI"}}, {"type": "Feature", "geometry": {"type": "Point", "coordinates": [99.6462, 1.54]}, "properties": {"code": "PLSM"}}, {"type": "Feature", "geometry": {"type": "Point", "coordinates": [104.699, -2.9024]}, "properties": {"code": "PMBI"}}, {"type": "Feature", "geometry": {"type": "Point", "coordinates": [119.348, -1.1728]}, "properties": {"code": "PMCI"}}, {"type": "Feature", "geometry": {"type": "Point", "coordinates": [127.416, 0.372]}, "properties": {"code": "PMMI"}}, {"type": "Feature", "geometry": {"type": "Point", "coordinates": [118.915, -3.50083]}, "properties": {"code": "PMSI"}}, {"type": "Feature", "geometry": {"type": "Point", "coordinates": [99.2618, 2.52306]}, "properties": {"code": "PMTSI"}}, {"type": "Feature", "geometry": {"type": "Point", "coordinates": [122.002, -4.73985]}, "properties": {"code": "POBSI"}}, {"type": "Feature", "geometry": {"type": "Point", "coordinates": [120.657, -1.4203]}, "properties": {"code": "POCI"}}, {"type": "Feature", "geometry": {"type": "Point", "coordinates": [111.492, -7.872]}, "properties": {"code": "POJN"}}, {"type": "Feature", "geometry": {"type": "Point", "coordinates": [112.812, -8.053]}, "properties": {"code": "POKJI"}}, {"type": "Feature", "geometry": {"type": "Point", "coordinates": [106.136, -2.16157]}, "properties": {"code": "PPBI"}}, {"type": "Feature", "geometry": {"type": "Point", "coordinates": [119.727, -3.727]}, "properties": {"code": "PPCM"}}, {"type": "Feature", "geometry": {"type": "Point", "coordinates": [100.396, -0.45472]}, "properties": {"code": "PPI"}}, {"type": "Feature", "geometry": {"type": "Point", "coordinates": [112.635, -7.70444]}, "properties": {"code": "PPJI"}}, {"type": "Feature", "geometry": {"type": "Point", "coordinates": [111.088, -8.20457]}, "properties": {"code": "PPJR"}}, {"type": "Feature", "geometry": {"type": "Point", "coordinates": [105.145, -5.74103]}, "properties": {"code": "PPLI"}}, {"type": "Feature", "geometry": {"type": "Point", "coordinates": [104.016, -5.3182]}, "properties": {"code": "PPSM"}}, {"type": "Feature", "geometry": {"type": "Point", "coordinates": [100.579, -1.35]}, "properties": {"code": "PPSN"}}, {"type": "Feature", "geometry": {"type": "Point", "coordinates": [110.792, -8.07235]}, "properties": {"code": "PRJI"}}, {"type": "Feature", "geometry": {"type": "Point", "coordinates": [113.114, -8.23227]}, "properties": {"code": "PRLJI"}}, {"type": "Feature", "geometry": {"type": "Point", "coordinates": [102.17, 0.37]}, "properties": {"code": "PRSI"}}, {"type": "Feature", "geometry": {"type": "Point", "coordinates": [96.7722, 5.13577]}, "properties": {"code": "PSASI"}}, {"type": "Feature", "geometry": {"type": "Point", "coordinates": [120.62, -7.06]}, "properties": {"code": "PSJCM"}}, {"type": "Feature", "geometry": {"type": "Point", "coordinates": [106.549, -6.96858]}, "properties": {"code": "PSJM"}}, {"type": "Feature", "geometry": {"type": "Point", "coordinates": [105.51, -5.93732]}, "properties": {"code": "PSLI"}}, {"type": "Feature", "geometry": {"type": "Point", "coordinates": [125.404, 2.73531]}, "properties": {"code": "PSSI"}}, {"type": "Feature", "geometry": {"type": "Point", "coordinates": [104.695, -5.86438]}, "properties": {"code": "PSSM"}}, {"type": "Feature", "geometry": {"type": "Point", "coordinates": [98.8969, 1.5534]}, "properties": {"code": "PSSN"}}, {"type": "Feature", "geometry": {"type": "Point", "coordinates": [101.03, -1.46249]}, "properties": {"code": "PSSR"}}, {"type": "Feature", "geometry": {"type": "Point", "coordinates": [106.749, -6.26552]}, "properties": {"code": "PTJI"}}, {"type": "Feature", "geometry": {"type": "Point", "coordinates": [113.238, -7.18021]}, "properties": {"code": "PTJN"}}, {"type": "Feature", "geometry": {"type": "Point", "coordinates": [99.166, 2.01186]}, "properties": {"code": "PTSM"}}, {"type": "Feature", "geometry": {"type": "Point", "coordinates": [120.657, -1.42021]}, "properties": {"code": "PTSN"}}, {"type": "Feature", "geometry": {"type": "Point", "coordinates": [120.676, -1.733]}, "properties": {"code": "PUPSI"}}, {"type": "Feature", "geometry": {"type": "Point", "coordinates": [106.843, -6.1561]}, "properties": {"code": "PUSI"}}, {"type": "Feature", "geometry": {"type": "Point", "coordinates": [99.0633, 2.95148]}, "properties": {"code": "PUSN"}}, {"type": "Feature", "geometry": {"type": "Point", "coordinates": [120.4, -3.6739]}, "properties": {"code": "PWCM"}}, {"type": "Feature", "geometry": {"type": "Point", "coordinates": [111.804, -8.02189]}, "properties": {"code": "PWJI"}}, {"type": "Feature", "geometry": {"type": "Point", "coordinates": [126.418, -7.92726]}, "properties": {"code": "PWTMI"}}, {"type": "Feature", "geometry": {"type": "Point", "coordinates": [130.821, -0.410148]}, "properties": {"code": "RAPI"}}, {"type": "Feature", "geometry": {"type": "Point", "coordinates": [101.071, -2.1655]}, "properties": {"code": "RASM"}}, {"type": "Feature", "geometry": {"type": "Point", "coordinates": [119.552, -1.2954]}, "properties": {"code": "RDCM"}}, {"type": "Feature", "geometry": {"type": "Point", "coordinates": [102.334, -0.349112]}, "properties": {"code": "RGRI"}}, {"type": "Feature", "geometry": {"type": "Point", "coordinates": [100.51, 1.44]}, "properties": {"code": "RHRSI"}}, {"type": "Feature", "geometry": {"type": "Point", "coordinates": [121.581, -2.94025]}, "properties": {"code": "RKCM"}}, {"type": "Feature", "geometry": {"type": "Point", "coordinates": [134.177, -1.51067]}, "properties": {"code": "RKPI"}}, {"type": "Feature", "geometry": {"type": "Point", "coordinates": [102.587, -3.45129]}, "properties": {"code": "RLBSI"}}, {"type": "Feature", "geometry": {"type": "Point", "coordinates": [99.8455, 2.0687]}, "properties": {"code": "RLSI"}}, {"type": "Feature", "geometry": {"type": "Point", "coordinates": [105.676, -5.83028]}, "properties": {"code": "RLSR"}}, {"type": "Feature", "geometry": {"type": "Point", "coordinates": [123.074, -10.7665]}, "properties": {"code": "RMNI"}}, {"type": "Feature", "geometry": {"type": "Point", "coordinates": [120.478, -8.59793]}, "properties": {"code": "RMNN"}}, {"type": "Feature", "geometry": {"type": "Point", "coordinates": [102.762, -2.62326]}, "properties": {"code": "RMSM"}}, {"type": "Feature", "geometry": {"type": "Point", "coordinates": [121.026, -8.42935]}, "properties": {"code": "RNFM"}}, {"type": "Feature", "geometry": {"type": "Point", "coordinates": [123.013, -10.806]}, "properties": {"code": "ROTTI"}}, {"type": "Feature", "geometry": {"type": "Point", "coordinates": [100.427, 0.57137]}, "properties": {"code": "RRHRI"}}, {"type": "Feature", "geometry": {"type": "Point", "coordinates": [100.346, 0.8409]}, "properties": {"code": "RRSI"}}, {"type": "Feature", "geometry": {"type": "Point", "coordinates": [106.52, -7.33071]}, "properties": {"code": "RSJR"}}, {"type": "Feature", "geometry": {"type": "Point", "coordinates": [98.8608, 2.95897]}, "properties": {"code": "RSMSI"}}, {"type": "Feature", "geometry": {"type": "Point", "coordinates": [117.56, -8.91]}, "properties": {"code": "RSNI"}}, {"type": "Feature", "geometry": {"type": "Point", "coordinates": [98.783, 2.59792]}, "properties": {"code": "RSSM"}}, {"type": "Feature", "geometry": {"type": "Point", "coordinates": [114.942, -8.45962]}, "properties": {"code": "RTBI"}}, {"type": "Feature", "geometry": {"type": "Point", "coordinates": [113.211, -7.78855]}, "properties": {"code": "RTJN"}}, {"type": "Feature", "geometry": {"type": "Point", "coordinates": [95.525, 5.562]}, "properties": {"code": "SAASI"}}, {"type": "Feature", "geometry": {"type": "Point", "coordinates": [106.074, -6.57379]}, "properties": {"code": "SADLY"}}, {"type": "Feature", "geometry": {"type": "Point", "coordinates": [110.155, -7.686]}, "properties": {"code": "SAKJI"}}, {"type": "Feature", "geometry": {"type": "Point", "coordinates": [124.922, 1.537]}, "properties": {"code": "SAMI"}}, {"type": "Feature", "geometry": {"type": "Point", "coordinates": [110.364, -0.189252]}, "properties": {"code": "SAMKI"}}, {"type": "Feature", "geometry": {"type": "Point", "coordinates": [120.464, -1.0]}, "properties": {"code": "SAPSI"}}, {"type": "Feature", "geometry": {"type": "Point", "coordinates": [95.4825, 4.8795]}, "properties": {"code": "SASM"}}, {"type": "Feature", "geometry": {"type": "Point", "coordinates": [100.03, -0.32657]}, "properties": {"code": "SASR"}}, {"type": "Feature", "geometry": {"type": "Point", "coordinates": [138.87, -1.972]}, "properties": {"code": "SATPI"}}, {"type": "Feature", "geometry": {"type": "Point", "coordinates": [131.299, -7.9826]}, "properties": {"code": "SAUI"}}, {"type": "Feature", "geometry": {"type": "Point", "coordinates": [114.918, -8.2031]}, "properties": {"code": "SBBM"}}, {"type": "Feature", "geometry": {"type": "Point", "coordinates": [106.132, -6.11113]}, "properties": {"code": "SBJI"}}, {"type": "Feature", "geometry": {"type": "Point", "coordinates": [121.846, -10.4917]}, "properties": {"code": "SBNI"}}, {"type": "Feature", "geometry": {"type": "Point", "coordinates": [99.431, 1.39879]}, "properties": {"code": "SBSI"}}, {"type": "Feature", "geometry": {"type": "Point", "coordinates": [99.3775, 0.1983]}, "properties": {"code": "SBSM"}}, {"type": "Feature", "geometry": {"type": "Point", "coordinates": [119.889, -1.206]}, "properties": {"code": "SBSSI"}}, {"type": "Feature", "geometry": {"type": "Point", "coordinates": [109.169, -7.68097]}, "properties": {"code": "SCJI"}}, {"type": "Feature", "geometry": {"type": "Point", "coordinates": [107.223, -6.84325]}, "properties": {"code": "SCJM"}}, {"type": "Feature", "geometry": {"type": "Point", "coordinates": [110.501, -7.33111]}, "properties": {"code": "SCJN"}}, {"type": "Feature", "geometry": {"type": "Point", "coordinates": [107.132, -7.0978]}, "properties": {"code": "SCJR"}}, {"type": "Feature", "geometry": {"type": "Point", "coordinates": [119.769, -0.4941]}, "properties": {"code": "SDCI"}}, {"type": "Feature", "geometry": {"type": "Point", "coordinates": [101.428, -0.932644]}, "properties": {"code": "SDSI"}}, {"type": "Feature", "geometry": {"type": "Point", "coordinates": [98.2868, 2.75379]}, "properties": {"code": "SDSM"}}, {"type": "Feature", "geometry": {"type": "Point", "coordinates": [111.729, -7.0051]}, "properties": {"code": "SEJI"}}, {"type": "Feature", "geometry": {"type": "Point", "coordinates": [110.418, -6.9507]}, "properties": {"code": "SEMA"}}, {"type": "Feature", "geometry": {"type": "Point", "coordinates": [110.375, -6.993]}, "properties": {"code": "SEME"}}, {"type": "Feature", "geometry": {"type": "Point", "coordinates": [117.604, 0.530248]}, "properties": {"code": "SGKI"}}, {"type": "Feature", "geometry": {"type": "Point", "coordinates": [108.019, -7.01013]}, "properties": {"code": "SGRJI"}}, {"type": "Feature", "geometry": {"type": "Point", "coordinates": [108.808, -7.472]}, "properties": {"code": "SICJI"}}, {"type": "Feature", "geometry": {"type": "Point", "coordinates": [112.76, -7.4101]}, "properties": {"code": "SIJM"}}, {"type": "Feature", "geometry": {"type": "Point", "coordinates": [101.66, 0.86]}, "properties": {"code": "SIRSI"}}, {"type": "Feature", "geometry": {"type": "Point", "coordinates": [99.0894, -1.3263]}, "properties": {"code": "SISI"}}, {"type": "Feature", "geometry": {"type": "Point", "coordinates": [96.7288, 4.6082]}, "properties": {"code": "SISM"}}, {"type": "Feature", "geometry": {"type": "Point", "coordinates": [99.1402, -1.7806]}, "properties": {"code": "SISMI"}}, {"type": "Feature", "geometry": {"type": "Point", "coordinates": [98.98, -1.126]}, "properties": {"code": "SIUMI"}}, {"type": "Feature", "geometry": {"type": "Point", "coordinates": [140.502, -2.5698]}, "properties": {"code": "SJPM"}}, {"type": "Feature", "geometry": {"type": "Point", "coordinates": [106.563, -7.00509]}, "properties": {"code": "SKJI"}}, {"type": "Feature", "geometry": {"type": "Point", "coordinates": [110.845, -7.6874]}, "properties": {"code": "SKJR"}}, {"type": "Feature", "geometry": {"type": "Point", "coordinates": [109.015, 0.94457]}, "properties": {"code": "SKKN"}}, {"type": "Feature", "geometry": {"type": "Point", "coordinates": [140.726, -3.4485]}, "properties": {"code": "SKPM"}}, {"type": "Feature", "geometry": {"type": "Point", "coordinates": [95.3127, 5.8944]}, "properties": {"code": "SKSI"}}, {"type": "Feature", "geometry": {"type": "Point", "coordinates": [101.35, -1.946]}, "properties": {"code": "SKSM"}}, {"type": "Feature", "geometry": {"type": "Point", "coordinates": [115.934, -8.79622]}, "properties": {"code": "SLBFM"}}, {"type": "Feature", "geometry": {"type": "Point", "coordinates": [124.839, 1.4434]}, "properties": {"code": "SLMI"}}, {"type": "Feature", "geometry": {"type": "Point", "coordinates": [119.837, -0.905324]}, "properties": {"code": "SLPI"}}, {"type": "Feature", "geometry": {"type": "Point", "coordinates": [102.593, -2.3924]}, "properties": {"code": "SLSI"}}, {"type": "Feature", "geometry": {"type": "Point", "coordinates": [100.653, -0.83132]}, "properties": {"code": "SLSM"}}, {"type": "Feature", "geometry": {"type": "Point", "coordinates": [105.584, -5.7157]}, "properties": {"code": "SLSN"}}, {"type": "Feature", "geometry": {"type": "Point", "coordinates": [117.209, -0.446149]}, "properties": {"code": "SMKI"}}, {"type": "Feature", "geometry": {"type": "Point", "coordinates": [138.711, -1.98111]}, "properties": {"code": "SMPI"}}, {"type": "Feature", "geometry": {"type": "Point", "coordinates": [110.441, -7.049]}, "properties": {"code": "SMRI"}}, {"type": "Feature", "geometry": {"type": "Point", "coordinates": [122.365, 0.988504]}, "properties": {"code": "SMSI"}}, {"type": "Feature", "geometry": {"type": "Point", "coordinates": [100.171, -0.005923]}, "properties": {"code": "SMSM"}}, {"type": "Feature", "geometry": {"type": "Point", "coordinates": [99.2047, -1.58333]}, "properties": {"code": "SMSR"}}, {"type": "Feature", "geometry": {"type": "Point", "coordinates": [97.4295, 0.9632]}, "properties": {"code": "SNBI"}}, {"type": "Feature", "geometry": {"type": "Point", "coordinates": [122.211, -8.6244]}, "properties": {"code": "SNFN"}}, {"type": "Feature", "geometry": {"type": "Point", "coordinates": [111.759, -7.78056]}, "properties": {"code": "SNJI"}}, {"type": "Feature", "geometry": {"type": "Point", "coordinates": [96.3267, 2.4089]}, "properties": {"code": "SNSI"}}, {"type": "Feature", "geometry": {"type": "Point", "coordinates": [141.007, -8.431]}, "properties": {"code": "SOMPI"}}, {"type": "Feature", "geometry": {"type": "Point", "coordinates": [109.254, -7.40743]}, "properties": {"code": "SPJN"}}, {"type": "Feature", "geometry": {"type": "Point", "coordinates": [105.583, -6.65916]}, "properties": {"code": "SPJR"}}, {"type": "Feature", "geometry": {"type": "Point", "coordinates": [107.614, -6.6669]}, "properties": {"code": "SPSJM"}}, {"type": "Feature", "geometry": {"type": "Point", "coordinates": [98.3738, 2.51596]}, "properties": {"code": "SPSM"}}, {"type": "Feature", "geometry": {"type": "Point", "coordinates": [115.213, -8.08471]}, "properties": {"code": "SRBI"}}, {"type": "Feature", "geometry": {"type": "Point", "coordinates": [136.24, -1.87692]}, "properties": {"code": "SRPI"}}, {"type": "Feature", "geometry": {"type": "Point", "coordinates": [120.87, -2.5315]}, "properties": {"code": "SRSI"}}, {"type": "Feature", "geometry": {"type": "Point", "coordinates": [95.925, 2.83]}, "properties": {"code": "SSASI"}}, {"type": "Feature", "geometry": {"type": "Point", "coordinates": [106.962, -6.88707]}, "properties": {"code": "SSJM"}}, {"type": "Feature", "geometry": {"type": "Point", "coordinates": [106.884, -7.21149]}, "properties": {"code": "SSJR"}}, {"type": "Feature", "geometry": {"type": "Point", "coordinates": [108.96, 0.8178]}, "properties": {"code": "SSKI"}}, {"type": "Feature", "geometry": {"type": "Point", "coordinates": [130.829, -3.7367]}, "properties": {"code": "SSMI"}}, {"type": "Feature", "geometry": {"type": "Point", "coordinates": [97.9706, 2.67472]}, "properties": {"code": "SSSI"}}, {"type": "Feature", "geometry": {"type": "Point", "coordinates": [101.237, -1.56407]}, "properties": {"code": "SSSM"}}, {"type": "Feature", "geometry": {"type": "Point", "coordinates": [102.582, -4.06139]}, "properties": {"code": "SSSR"}}, {"type": "Feature", "geometry": {"type": "Point", "coordinates": [114.007, -7.71085]}, "properties": {"code": "STJN"}}, {"type": "Feature", "geometry": {"type": "Point", "coordinates": [111.477, 0.065568]}, "properties": {"code": "STKI"}}, {"type": "Feature", "geometry": {"type": "Point", "coordinates": [101.048, -2.38874]}, "properties": {"code": "STSI"}}, {"type": "Feature", "geometry": {"type": "Point", "coordinates": [95.9635, 2.58941]}, "properties": {"code": "STSR"}}, {"type": "Feature", "geometry": {"type": "Point", "coordinates": [119.452, -5.1426]}, "properties": {"code": "SUBA"}}, {"type": "Feature", "geometry": {"type": "Point", "coordinates": [117.413, -8.4879]}, "properties": {"code": "SUBE"}}, {"type": "Feature", "geometry": {"type": "Point", "coordinates": [119.545, -5.0589]}, "properties": {"code": "SUHA"}}, {"type": "Feature", "geometry": {"type": "Point", "coordinates": [112.782, -7.3728]}, "properties": {"code": "SUJU"}}, {"type": "Feature", "geometry": {"type": "Point", "coordinates": [105.515, -6.796]}, "properties": {"code": "SUPJI"}}, {"type": "Feature", "geometry": {"type": "Point", "coordinates": [104.295, -5.0212]}, "properties": {"code": "SUSM"}}, {"type": "Feature", "geometry": {"type": "Point", "coordinates": [99.2805, 1.4074]}, "properties": {"code": "SUSN"}}, {"type": "Feature", "geometry": {"type": "Point", "coordinates": [135.734, -0.732]}, "properties": {"code": "SUSPI"}}, {"type": "Feature", "geometry": {"type": "Point", "coordinates": [119.471, -5.0693]}, "properties": {"code": "SUUN"}}, {"type": "Feature", "geometry": {"type": "Point", "coordinates": [120.011, -4.2145]}, "properties": {"code": "SWCM"}}, {"type": "Feature", "geometry": {"type": "Point", "coordinates": [131.259, -0.86275]}, "properties": {"code": "SWI"}}, {"type": "Feature", "geometry": {"type": "Point", "coordinates": [111.767, -7.73494]}, "properties": {"code": "SWJI"}}, {"type": "Feature", "geometry": {"type": "Point", "coordinates": [133.594, -0.8035]}, "properties": {"code": "SWPM"}}, {"type": "Feature", "geometry": {"type": "Point", "coordinates": [110.491, -7.7483]}, "properties": {"code": "SYJI"}}, {"type": "Feature", "geometry": {"type": "Point", "coordinates": [110.59, -8.08]}, "properties": {"code": "TAGJI"}}, {"type": "Feature", "geometry": {"type": "Point", "coordinates": [111.907, -8.0779]}, "properties": {"code": "TAJN"}}, {"type": "Feature", "geometry": {"type": "Point", "coordinates": [119.249, -3.332]}, "properties": {"code": "TAPSI"}}, {"type": "Feature", "geometry": {"type": "Point", "coordinates": [117.57, 3.32712]}, "properties": {"code": "TARAI"}}, {"type": "Feature", "geometry": {"type": "Point", "coordinates": [100.079, -0.3241]}, "properties": {"code": "TASI"}}, {"type": "Feature", "geometry": {"type": "Point", "coordinates": [97.3116, 3.1344]}, "properties": {"code": "TASN"}}, {"type": "Feature", "geometry": {"type": "Point", "coordinates": [125.386, 2.347]}, "properties": {"code": "TASSI"}}, {"type": "Feature", "geometry": {"type": "Point", "coordinates": [120.283, -4.91177]}, "properties": {"code": "TBCM"}}, {"type": "Feature", "geometry": {"type": "Point", "coordinates": [111.848, -6.81788]}, "properties": {"code": "TBJI"}}, {"type": "Feature", "geometry": {"type": "Point", "coordinates": [117.424, 2.136]}, "properties": {"code": "TBKI"}}, {"type": "Feature", "geometry": {"type": "Point", "coordinates": [124.59, 0.7139]}, "properties": {"code": "TBMCM"}}, {"type": "Feature", "geometry": {"type": "Point", "coordinates": [124.344, -1.9]}, "properties": {"code": "TBMUI"}}, {"type": "Feature", "geometry": {"type": "Point", "coordinates": [120.818, 1.05031]}, "properties": {"code": "TCSN"}}, {"type": "Feature", "geometry": {"type": "Point", "coordinates": [111.716, -8.27209]}, "properties": {"code": "TDSR"}}, {"type": "Feature", "geometry": {"type": "Point", "coordinates": [115.373, -8.15118]}, "properties": {"code": "TEBBI"}}, {"type": "Feature", "geometry": {"type": "Point", "coordinates": [123.078, 0.5201]}, "properties": {"code": "TGCM"}}, {"type": "Feature", "geometry": {"type": "Point", "coordinates": [121.866, -3.977]}, "properties": {"code": "TIKSI"}}, {"type": "Feature", "geometry": {"type": "Point", "coordinates": [120.419, 0.489]}, "properties": {"code": "TIPSI"}}, {"type": "Feature", "geometry": {"type": "Point", "coordinates": [109.121, -6.8684]}, "properties": {"code": "TJTI"}}, {"type": "Feature", "geometry": {"type": "Point", "coordinates": [110.066, -7.9028]}, "properties": {"code": "TKJN"}}, {"type": "Feature", "geometry": {"type": "Point", "coordinates": [132.758, -5.75457]}, "properties": {"code": "TKMN"}}, {"type": "Feature", "geometry": {"type": "Point", "coordinates": [98.3244, 3.1374]}, "properties": {"code": "TKSM"}}, {"type": "Feature", "geometry": {"type": "Point", "coordinates": [96.8189, 4.6171]}, "properties": {"code": "TKSN"}}, {"type": "Feature", "geometry": {"type": "Point", "coordinates": [117.581, 3.3133]}, "properties": {"code": "TKUN"}}, {"type": "Feature", "geometry": {"type": "Point", "coordinates": [120.794, -2.50925]}, "properties": {"code": "TLCM"}}, {"type": "Feature", "geometry": {"type": "Point", "coordinates": [132.74, -5.69943]}, "properties": {"code": "TLE"}}, {"type": "Feature", "geometry": {"type": "Point", "coordinates": [136.893, -4.5299]}, "properties": {"code": "TMPI"}}, {"type": "Feature", "geometry": {"type": "Point", "coordinates": [124.926, 1.29481]}, "properties": {"code": "TMSI"}}, {"type": "Feature", "geometry": {"type": "Point", "coordinates": [101.446, -2.69954]}, "properties": {"code": "TMSM"}}, {"type": "Feature", "geometry": {"type": "Point", "coordinates": [129.53, -3.2979]}, "properties": {"code": "TMTMM"}}, {"type": "Feature", "geometry": {"type": "Point", "coordinates": [127.372, 0.7699]}, "properties": {"code": "TMTN"}}, {"type": "Feature", "geometry": {"type": "Point", "coordinates": [127.446, 0.6645]}, "properties": {"code": "TMUN"}}, {"type": "Feature", "geometry": {"type": "Point", "coordinates": [106.647, -6.1718]}, "properties": {"code": "TNGI"}}, {"type": "Feature", "geometry": {"type": "Point", "coordinates": [116.515, -8.63283]}, "properties": {"code": "TNLN"}}, {"type": "Feature", "geometry": {"type": "Point", "coordinates": [110.467, -7.29824]}, "properties": {"code": "TNSJI"}}, {"type": "Feature", "geometry": {"type": "Point", "coordinates": [127.367, 0.772]}, "properties": {"code": "TNTI"}}, {"type": "Feature", "geometry": {"type": "Point", "coordinates": [124.473, -9.4638]}, "properties": {"code": "TNTN"}}, {"type": "Feature", "geometry": {"type": "Point", "coordinates": [122.25, -1.446]}, "properties": {"code": "TOBSI"}}, {"type": "Feature", "geometry": {"type": "Point", "coordinates": [121.408, -2.6473]}, "properties": {"code": "TOCM"}}, {"type": "Feature", "geometry": {"type": "Point", "coordinates": [108.134, -6.7621]}, "properties": {"code": "TOJI"}}, {"type": "Feature", "geometry": {"type": "Point", "coordinates": [120.782, 1.1112]}, "properties": {"code": "TOLI2"}}, {"type": "Feature", "geometry": {"type": "Point", "coordinates": [121.284, -1.15292]}, "properties": {"code": "TOTSI"}}, {"type": "Feature", "geometry": {"type": "Point", "coordinates": [121.099, 0.467467]}, "properties": {"code": "TPCI"}}, {"type": "Feature", "geometry": {"type": "Point", "coordinates": [107.652, -2.75667]}, "properties": {"code": "TPI"}}, {"type": "Feature", "geometry": {"type": "Point", "coordinates": [105.792, -6.49936]}, "properties": {"code": "TPJR"}}, {"type": "Feature", "geometry": {"type": "Point", "coordinates": [104.521, 0.919315]}, "properties": {"code": "TPRI"}}, {"type": "Feature", "geometry": {"type": "Point", "coordinates": [96.017, 4.9231]}, "properties": {"code": "TPSI"}}, {"type": "Feature", "geometry": {"type": "Point", "coordinates": [112.689, -7.664]}, "properties": {"code": "TRES"}}, {"type": "Feature", "geometry": {"type": "Point", "coordinates": [99.583, -2.0601]}, "properties": {"code": "TRIYO"}}, {"type": "Feature", "geometry": {"type": "Point", "coordinates": [98.9608, 2.02668]}, "properties": {"code": "TRSI"}}, {"type": "Feature", "geometry": {"type": "Point", "coordinates": [107.149, -6.60545]}, "properties": {"code": "TSBJI"}}, {"type": "Feature", "geometry": {"type": "Point", "coordinates": [98.5646, 3.50115]}, "properties": {"code": "TSI"}}, {"type": "Feature", "geometry": {"type": "Point", "coordinates": [107.81, -6.731]}, "properties": {"code": "TSJM"}}, {"type": "Feature", "geometry": {"type": "Point", "coordinates": [106.719, -7.42336]}, "properties": {"code": "TSJR"}}, {"type": "Feature", "geometry": {"type": "Point", "coordinates": [118.28, -8.71]}, "properties": {"code": "TSNI"}}, {"type": "Feature", "geometry": {"type": "Point", "coordinates": [132.09, -1.4733]}, "properties": {"code": "TSPI"}}, {"type": "Feature", "geometry": {"type": "Point", "coordinates": [115.116, -8.55701]}, "properties": {"code": "TTBR"}}, {"type": "Feature", "geometry": {"type": "Point", "coordinates": [111.338, -7.6601]}, "properties": {"code": "TTJN"}}, {"type": "Feature", "geometry": {"type": "Point", "coordinates": [119.762, -4.81838]}, "properties": {"code": "TTPSI"}}, {"type": "Feature", "geometry": {"type": "Point", "coordinates": [119.819, -3.04528]}, "properties": {"code": "TTSI"}}, {"type": "Feature", "geometry": {"type": "Point", "coordinates": [99.4108, 1.0856]}, "properties": {"code": "TTSM"}}, {"type": "Feature", "geometry": {"type": "Point", "coordinates": [128.727, -2.864]}, "properties": {"code": "TTSMI"}}, {"type": "Feature", "geometry": {"type": "Point", "coordinates": [107.05, -6.18814]}, "properties": {"code": "TUBJI"}}, {"type": "Feature", "geometry": {"type": "Point", "coordinates": [116.882, -8.73819]}, "properties": {"code": "TWSI"}}, {"type": "Feature", "geometry": {"type": "Point", "coordinates": [97.3038, 5.07688]}, "properties": {"code": "UASN"}}, {"type": "Feature", "geometry": {"type": "Point", "coordinates": [102.271, -3.76102]}, "properties": {"code": "UBSI"}}, {"type": "Feature", "geometry": {"type": "Point", "coordinates": [110.861, -6.80791]}, "properties": {"code": "UCJN"}}, {"type": "Feature", "geometry": {"type": "Point", "coordinates": [110.522, -7.9125]}, "properties": {"code": "UGM"}}, {"type": "Feature", "geometry": {"type": "Point", "coordinates": [110.373, -7.76536]}, "properties": {"code": "UGMN"}}, {"type": "Feature", "geometry": {"type": "Point", "coordinates": [122.043, -3.857]}, "properties": {"code": "UKCM"}}, {"type": "Feature", "geometry": {"type": "Point", "coordinates": [118.875, -3.05225]}, "properties": {"code": "ULMSI"}}, {"type": "Feature", "geometry": {"type": "Point", "coordinates": [102.794, -3.7588]}, "properties": {"code": "ULSM"}}, {"type": "Feature", "geometry": {"type": "Point", "coordinates": [102.548, -3.59]}, "properties": {"code": "UMKSI"}}, {"type": "Feature", "geometry": {"type": "Point", "coordinates": [120.661, -9.897]}, "properties": {"code": "UMSSI"}}, {"type": "Feature", "geometry": {"type": "Point", "coordinates": [110.854, -7.561]}, "properties": {"code": "UNSO"}}, {"type": "Feature", "geometry": {"type": "Point", "coordinates": [117.141, -8.41198]}, "properties": {"code": "USFM"}}, {"type": "Feature", "geometry": {"type": "Point", "coordinates": [119.788, -9.6543]}, "properties": {"code": "USTI"}}, {"type": "Feature", "geometry": {"type": "Point", "coordinates": [104.551, -5.31257]}, "properties": {"code": "UTSI"}}, {"type": "Feature", "geometry": {"type": "Point", "coordinates": [102.728, -4.08339]}, "properties": {"code": "UTSM"}}, {"type": "Feature", "geometry": {"type": "Point", "coordinates": [121.861, -0.42736]}, "properties": {"code": "UTUSI"}}, {"type": "Feature", "geometry": {"type": "Point", "coordinates": [110.947, -6.41902]}, "properties": {"code": "UWJI"}}, {"type": "Feature", "geometry": {"type": "Point", "coordinates": [135.587, -3.479]}, "properties": {"code": "UWNPI"}}, {"type": "Feature", "geometry": {"type": "Point", "coordinates": [138.95, -4.09556]}, "properties": {"code": "WAMI"}}, {"type": "Feature", "geometry": {"type": "Point", "coordinates": [135.376, -3.421]}, "properties": {"code": "WANPI"}}, {"type": "Feature", "geometry": {"type": "Point", "coordinates": [127.871, 0.3393]}, "properties": {"code": "WBMI"}}, {"type": "Feature", "geometry": {"type": "Point", "coordinates": [118.887, -8.3026]}, "properties": {"code": "WBNI"}}, {"type": "Feature", "geometry": {"type": "Point", "coordinates": [119.391, -9.64116]}, "properties": {"code": "WBSI"}}, {"type": "Feature", "geometry": {"type": "Point", "coordinates": [121.718, -8.60695]}, "properties": {"code": "WEFM"}}, {"type": "Feature", "geometry": {"type": "Point", "coordinates": [122.71, -8.5247]}, "properties": {"code": "WFTFM"}}, {"type": "Feature", "geometry": {"type": "Point", "coordinates": [112.51, -7.3833]}, "properties": {"code": "WGJM"}}, {"type": "Feature", "geometry": {"type": "Point", "coordinates": [110.579, -7.97251]}, "properties": {"code": "WGJR"}}, {"type": "Feature", "geometry": {"type": "Point", "coordinates": [120.298, -9.6692]}, "properties": {"code": "WGNI"}}, {"type": "Feature", "geometry": {"type": "Point", "coordinates": [128.132, 1.0825]}, "properties": {"code": "WHMI"}}, {"type": "Feature", "geometry": {"type": "Point", "coordinates": [121.299, -3.8259]}, "properties": {"code": "WKCM"}}, {"type": "Feature", "geometry": {"type": "Point", "coordinates": [123.45, -8.5311]}, "properties": {"code": "WLFM"}}, {"type": "Feature", "geometry": {"type": "Point", "coordinates": [105.891, -6.8311]}, "properties": {"code": "WLJI"}}, {"type": "Feature", "geometry": {"type": "Point", "coordinates": [116.541, -8.51818]}, "properties": {"code": "WLTFM"}}, {"type": "Feature", "geometry": {"type": "Point", "coordinates": [121.622, -2.2162]}, "properties": {"code": "WMCM"}}, {"type": "Feature", "geometry": {"type": "Point", "coordinates": [110.924, -7.83719]}, "properties": {"code": "WOJI"}}, {"type": "Feature", "geometry": {"type": "Point", "coordinates": [113.746, -7.81129]}, "properties": {"code": "WRJI"}}, {"type": "Feature", "geometry": {"type": "Point", "coordinates": [127.813, 0.764]}, "properties": {"code": "WSHHI"}}, {"type": "Feature", "geometry": {"type": "Point", "coordinates": [120.297, -9.67056]}, "properties": {"code": "WSI"}}, {"type": "Feature", "geometry": {"type": "Point", "coordinates": [106.725, -6.97472]}, "properties": {"code": "WSJM"}}, {"type": "Feature", "geometry": {"type": "Point", "coordinates": [120.193, -3.0063]}, "properties": {"code": "WUPCM"}}, {"type": "Feature", "geometry": {"type": "Point", "coordinates": [123.525, -5.2724]}, "properties": {"code": "WWCI"}}, {"type": "Feature", "geometry": {"type": "Point", "coordinates": [136.377, -2.313]}, "properties": {"code": "WWPI"}}, {"type": "Feature", "geometry": {"type": "Point", "coordinates": [136.063, -1.831]}, "properties": {"code": "YBYPI"}}, {"type": "Feature", "geometry": {"type": "Point", "coordinates": [113.23, -8.12361]}, "properties": {"code": "YLJR"}}, {"type": "Feature", "geometry": {"type": "Point", "coordinates": [110.295, -7.8168]}, "properties": {"code": "YOGI"}}, {"type": "Feature", "geometry": {"type": "Point", "coordinates": [116.279, -8.7658]}, "properties": {"code": "ZALN"}}]}